POLYITAN-1              
1 40042U 14033AJ  26200.54086384  .00010044  00000+0  30475-3 0  9999
2 40042  98.0935 229.8891 0007515  51.2798 308.9114 15.34312602658557
TIGRISAT                
1 40043U 14033AK  26200.85830544  .00000746  00000+0  91582-4 0  9994
2 40043  97.7872 350.1303 0048241 328.8073  31.0280 14.85256969650479
AEROCUBE 6A             
1 40045U 14033AM  26200.41481412  .00003331  00000+0  28085-3 0  9994
2 40045  97.7266   7.0301 0036113 266.3491  93.3602 14.98371075651446
AEROCUBE 6B             
1 40046U 14033AN  26200.38581180  .00002538  00000+0  20700-3 0  9998
2 40046  97.7208   6.8556 0038159 255.3149 104.3843 14.99819606651585
CANX-4                  
1 40055U 14034C   26200.23780495  .00000387  00000+0  56964-4 0  9995
2 40055  98.3077  76.7214 0011369 268.2732  91.7177 14.81314925649275
CANX-5                  
1 40056U 14034D   26200.23586366  .00000384  00000+0  56525-4 0  9997
2 40056  98.3080  76.7649 0011372 268.5748  91.4161 14.81332261640089
UKUBE-1                 
1 40074U 14037F   26200.75564705  .00004417  00000+0  24773-3 0  9990
2 40074  98.4250 207.4625 0003180  80.2110 279.9478 15.13990479653485
BRITE-PL2 (HEWELIUSZ)   
1 40119U 14049B   26200.77530811  .00000744  00000+0  73988-4 0  9998
2 40119  97.9121 313.0328 0013872   7.3267 352.8153 14.94693226646315
AEROCUBE 5C             
1 40965U 15058B   26200.89108862  .00001865  00000+0  17180-3 0  9994
2 40965  64.7652 160.8369 0132674  50.6691 310.6092 14.91594754370537
AEROCUBE 7              
1 40966U 15058C   26200.45900343  .00002720  00000+0  22242-3 0  9997
2 40966  64.7617 143.7158 0122352  49.1341 312.0299 14.95938135370783
FOX-1A (AO-85)          
1 40967U 15058D   26200.34570337  .00001693  00000+0  15937-3 0  9993
2 40967  64.7726 179.0327 0132708  44.2393 316.9236 14.91103340118360
SINOD-D 1               
1 40968U 15058E   26200.29945566  .00002821  00000+0  22960-3 0  9996
2 40968  64.7741 158.3324 0121420  40.6040 320.4051 14.96111905121464
SNAP-3 ALICE            
1 40970U 15058G   26200.84291272  .00095788  00000+0  83270-3 0  9993
2 40970  64.7501 350.3405 0025696 345.4772  14.5636 15.68116452121991
LMRST-SAT               
1 40971U 15058H   26200.64470733  .00001581  00000+0  15084-3 0  9999
2 40971  64.7734 174.5035 0134259  46.1250 315.0858 14.90718904118396
SNAP-3 EDDIE            
1 40972U 15058J   26200.80627500  .00103668  00000+0  84605-3 0  9998
2 40972  64.7409 340.9392 0026692 347.9211  12.1296 15.69580626124136
PROPCUBE 3              
1 40973U 15058K   26200.86779770  .00002497  00000+0  21179-3 0  9997
2 40973  64.7679 150.4138 0126142  47.2292 313.9349 14.94439524119680
BISONSAT                
1 40974U 15058L   26200.80545010  .00007278  00000+0  34546-3 0  9994
2 40974  64.7581  68.1121 0082521  33.9092 326.7268 15.17003962120562
SNAP-3 JIMI             
1 40975U 15058M   26200.20517577  .00003866  00000+0  26719-3 0  9998
2 40975  64.7645 118.4420 0108163  42.7825 318.1647 15.02642517119033
PROPCUBE 1 (FLORA)      
1 40976U 15058N   26200.69663627  .00001344  00000+0  13568-3 0  9997
2 40976  64.7717 194.4693 0132825  48.3750 312.8648 14.89341537121106
SINOD-D 3               
1 40977U 15058P   26200.30235092  .00002326  00000+0  20182-3 0  9998
2 40977  64.7711 175.5179 0121398  45.5581 315.5386 14.94193569119555
RAVAN                   
1 41849U 16067B   26200.64219962  .00033640  00000+0  45310-3 0  9996
2 41849  97.9827  94.0397 0002829 196.2712 163.8452 15.57780497532744
CELTEE 1                
1 41850U 16067C   26200.59937670  .00002504  00000+0  12003-3 0  9993
2 41850  98.0629  69.3765 0002435 104.1559 255.9945 15.19964565530805
OPTICUBE 04             
1 41851U 16067D   26200.55559016  .00000997  00000+0  66002-4 0  9997
2 41851  98.0672  54.5257 0015837  13.7653 346.4004 15.09781432530054
AEROCUBE 8D             
1 41852U 16067E   26200.18385609  .00003758  00000+0  15481-3 0  9994
2 41852  98.0634  72.7915 0004337  46.8473 313.3125 15.24801432530941
AEROCUBE 8C             
1 41853U 16067F   26200.85966963  .00003946  00000+0  16115-3 0  9991
2 41853  98.0512  70.7052 0003797 322.1371  37.9598 15.25060798531041
CORVUS BC2              
1 42846U 17042X   26200.41128916  .00001310  00000+0  92685-4 0  9998
2 42846  97.4095   0.5175 0013016   8.6130 351.5319 15.06467590491911
CORVUS BC1              
1 42847U 17042Y   26200.40236116  .00001804  00000+0  12561-3 0  9992
2 42847  97.4127   1.3439 0011225 344.9562  15.1331 15.06633122491941
MAKERSAT 0              
1 43016U 17073D   26199.58482991  .00010616  00000+0  27996-3 0  9994
2 43016  97.4572  82.3624 0105621 160.2361 200.3022 15.33085965471274
SIRION PATHFINDER-2     
1 43759U 18099B   26200.68442020  .00002430  00000+0  13429-3 0  9991
2 43759  97.4232 248.9716 0008948 175.8572 184.2736 15.14797648417542
CORVUS BC4              
1 43767U 18099K   26200.86762900  .00002390  00000+0  14002-3 0  9995
2 43767  97.4048 242.8928 0006744 240.7409 119.3148 15.12721407417349
